1 44022U 98046R   19282.57090673  .00018777  00000-0  63044-2 0  9997
2 44022  45.3933 326.5186 0322896 174.0502 186.4319 14.11526879 39177
1 44022U 98046R   19283.91560796 +.00019660 +00000-0 +66476-2 0  9998
2 44022 045.3946 320.4463 0320045 180.8166 179.2190 14.11579614039360
